{"type":"FeatureCollection","licence":"Data © OpenStreetMap contributors, ODbL 1.0. http://osm.org/copyright","features":[{"type":"Feature","properties":{"osm_type":"relation","osm_id":1333112,"name":"Mersch","display_name":"Mersch, Canton Mersch, Lëtzebuerg"},"bbox":[6.0373180,49.6930621,6.1589681,49.7912687],"geometry":{"type":"Polygon","coordinates":[[[6.037318,49.743317],[6.0586637,49.7209632],[6.0667248,49.7250267],[6.0696914,49.7160113],[6.0837924,49.7150476],[6.0725823,49.6958065],[6.0903979,49.6986926],[6.0925402,49.6931746],[6.1062528,49.7084584],[6.0995319,49.7214592],[6.1065727,49.7315264],[6.1027404,49.738345],[6.1228974,49.7266024],[6.1559679,49.7432331],[6.1588757,49.7534338],[6.1417012,49.7537757],[6.1523243,49.7581755],[6.1442682,49.7576315],[6.154619,49.7690101],[6.1333973,49.7905691],[6.1074745,49.7912687],[6.0786937,49.7678949],[6.0635151,49.7714052],[6.0422306,49.7638353],[6.037318,49.743317]]]}}]}
