{"type":"FeatureCollection","licence":"Data © OpenStreetMap contributors, ODbL 1.0. http://osm.org/copyright","features":[{"type":"Feature","properties":{"osm_type":"relation","osm_id":407810,"name":"Canton Mersch","display_name":"Canton Mersch, Lëtzebuerg"},"bbox":[5.9859216,49.6813430,6.2795370,49.8344381],"geometry":{"type":"Polygon","coordinates":[[[5.9859216,49.748591],[6.007042,49.7362744],[5.9967726,49.716725],[6.0042079,49.705423],[5.9980657,49.6969012],[6.0370588,49.6913129],[6.0671748,49.7035225],[6.0752191,49.694336],[6.0903979,49.6986926],[6.0901455,49.6853327],[6.1258668,49.6923056],[6.1479628,49.681343],[6.1808889,49.6906769],[6.1848933,49.7145832],[6.220112,49.7338506],[6.2276431,49.7497079],[6.2648579,49.7442542],[6.279537,49.7669674],[6.2630986,49.7687123],[6.2628176,49.7787892],[6.2374315,49.7810832],[6.2485743,49.7853785],[6.237694,49.7861541],[6.2316124,49.7965506],[6.2180765,49.7893472],[6.1911871,49.8027311],[6.1891371,49.8222719],[6.1516605,49.818341],[6.1457162,49.8267381],[6.1092779,49.8103526],[6.064574,49.8344381],[6.0322605,49.819737],[6.0279175,49.8103628],[6.0385693,49.80377],[5.9985105,49.7835727],[5.9998133,49.7618907],[5.9859216,49.748591]]]}}]}
